[{"OBJECT_NAME":"STARLINK-2713","OBJECT_ID":"2021-041BB","EPOCH":"2026-03-09T16:00:03.000096","MEAN_MOTION":15.30159001,"ECCENTRICITY":8.76e-5,"INCLINATION":53.1595,"RA_OF_ASC_NODE":113.9599,"ARG_OF_PERICENTER":75.4197,"MEAN_ANOMALY":44.6441,"EPHEMERIS_TYPE":0,"CLASSIFICATION_TYPE":"U","NORAD_CAT_ID":48602,"ELEMENT_SET_NO":999,"REV_AT_EPOCH":575,"BSTAR":0.00060221,"MEAN_MOTION_DOT":0.00017496,"MEAN_MOTION_DDOT":0},{"OBJECT_NAME":"COSMOS 1174 DEB","OBJECT_ID":"1980-030Y","EPOCH":"2026-03-09T13:55:47.203680","MEAN_MOTION":14.93245018,"ECCENTRICITY":0.0309747,"INCLINATION":66.0991,"RA_OF_ASC_NODE":136.4359,"ARG_OF_PERICENTER":294.7315,"MEAN_ANOMALY":62.1863,"EPHEMERIS_TYPE":0,"CLASSIFICATION_TYPE":"U","NORAD_CAT_ID":12354,"ELEMENT_SET_NO":999,"REV_AT_EPOCH":38214,"BSTAR":0.00037697,"MEAN_MOTION_DOT":0.00010173,"MEAN_MOTION_DDOT":0}]
